COSMOS 2433 [GLONASS-M] 
1 32275U 07052A   26132.25207707 -.00000010  00000+0  00000+0 0  9997
2 32275  65.5976 317.1434 0001260 191.2243 168.7927  2.13104323144292
COSMOS 2432 [GLONASS-M] 
1 32276U 07052B   26132.45000145 -.00000011  00000+0  00000+0 0  9998
2 32276  65.6134 317.2637 0008594 337.2231 118.6433  2.13103386144320
COSMOS 2434 [GLONASS-M] 
1 32393U 07065A   26132.38841561  .00000063  00000+0  00000+0 0  9995
2 32393  64.3159 193.1230 0001316  37.3934 317.2266  2.13101512143000
COSMOS 2436 [GLONASS-M] 
1 32395U 07065C   26133.26899799  .00000072  00000+0  00000+0 0  9991
2 32395  64.3244 193.1651 0017150 356.7973  85.8341  2.13100439142983
COSMOS 2456 [GLONASS-M] 
1 36111U 09070A   26133.36451642 -.00000006  00000+0  00000+0 0  9999
2 36111  64.9920  72.1594 0005601 322.4249 218.9658  2.13103567127681
COSMOS 2457 [GLONASS-M] 
1 36112U 09070B   26132.20336640  .00000001  00000+0  00000+0 0  9996
2 36112  64.9768  72.0433 0001452 149.1813 349.1541  2.13101274127663
COSMOS 2460 [GLONASS-M] 
1 36402U 10007C   26133.41808615 -.00000014  00000+0  00000+0 0  9995
2 36402  65.4410 315.6434 0002329  76.3643 275.7386  2.13106409125987
COSMOS 2476 [GLONASS-M] 
1 37867U 11064A   26133.46280896 -.00000002  00000+0  00000+0 0  9992
2 37867  65.2513  74.0432 0023735 241.3402 283.8009  2.13103936113026
COSMOS 2477 [GLONASS-M] 
1 37868U 11064B   26132.53934963  .00000004  00000+0  00000+0 0  9992
2 37868  65.2573  74.1534 0020755 243.0495 114.0851  2.13103076112997
COSMOS 2475 [GLONASS-M] 
1 37869U 11064C   26133.53746779 -.00000003  00000+0  00000+0 0  9990
2 37869  65.2651  74.1407 0026804 255.0346 103.0905  2.13101916113027
COSMOS 2485 [GLONASS-M] 
1 39155U 13019A   26133.18477273  .00000001  00000+0  00000+0 0  9990
2 39155  65.4013  74.7786 0024106 236.6984 123.0536  2.13103381101536
COSMOS 2492 [GLONASS-M] 
1 39620U 14012A   26133.14373360 -.00000013  00000+0  00000+0 0  9993
2 39620  65.3184 315.1268 0010961 329.3347  30.6163  2.13103226 94498
COSMOS 2500 [GLONASS-M] 
1 40001U 14032A   26132.84470524 -.00000012  00000+0  00000+0 0  9995
2 40001  65.2533 314.8874 0006037 181.3762 178.6376  2.13105535 92701
COSMOS 2501 [GLONASS-K] 
1 40315U 14075A   26132.63703521  .00000068  00000+0  00000+0 0  9993
2 40315  63.6143 191.6025 0022142 210.7482 149.1999  2.13101550 89093
COSMOS 2514 [GLONASS-M] 
1 41330U 16008A   26132.15217779 -.00000010  00000+0  00000+0 0  9999
2 41330  65.0436 314.2432 0009974 197.0747 162.9073  2.13102651 79858
COSMOS 2522 [GLONASS-M] 
1 42939U 17055A   26132.45930743  .00000064  00000+0  00000+0 0  9992
2 42939  64.0766 193.1001 0009875 237.8379 122.1429  2.13102034 67214
COSMOS 2527 [GLONASS-M] 
1 43508U 18053A   26130.54369296  .00000017  00000+0  00000+0 0  9999
2 43508  65.5577  75.1624 0008142 246.5326 113.3712  2.13102285 61475
COSMOS 2529 [GLONASS-M] 
1 43687U 18086A   26132.04825520  .00000058  00000+0  00000+0 0  9992
2 43687  64.2931 193.8143 0010911 255.4886 104.4650  2.13102225 58511
COSMOS 2534 [GLONASS-M] 
1 44299U 19030A   26130.46780834  .00000041  00000+0  00000+0 0  9996
2 44299  64.3663 193.8862 0012337 276.0898  85.9352  2.13102604 54124
COSMOS 2544 [GLONASS-M] 
1 44850U 19088A   26130.95764889  .00000015  00000+0  00000+0 0  9999
2 44850  65.5460  74.9726 0014547 261.4033  98.4208  2.13102139 49921
COSMOS 2545 [GLONASS-M] 
1 45358U 20018A   26133.02995297 -.00000015  00000+0  00000+0 0  9999
2 45358  64.3767 313.6549 0007272 235.7130 124.2309  2.13102673 47917
COSMOS 2557 [GLONASS-K] 
1 52984U 22075A   26133.38373156 -.00000017  00000+0  00000+0 0  9992
2 52984  64.3189 315.7114 0010072 279.0223  80.8784  2.13102035 29977
COSMOS 2559 [GLONASS-K] 
1 54031U 22130A   26130.85697598 -.00000012  00000+0  00000+0 0  9992
2 54031  64.2936 315.8848 0011772 176.1333 183.8938  2.13101551 27899
COSMOS 2564 [GLONASS-M] 
1 54377U 22161A   26133.04666587  .00000069  00000+0  00000+0 0  9998
2 54377  64.7392 193.8779 0011540 222.0569 137.9328  2.13101986 26888
COSMOS 2569 [GLONASS-K2]
1 57517U 23114A   26133.05905253  .00000000  00000+0  00000+0 0  9998
2 57517  65.2834  73.8045 0011935 296.1840  63.6770  2.13103720 21518
COSMOS 2584 [GLONASS-K2]
1 63130U 25042A   26132.00743125  .00000007  00000+0  00000+0 0  9997
2 63130  65.0650  74.0315 0006355 235.0573 124.8698  2.13103732  9279
COSMOS 2596 [GLONASS-K1]
1 65590U 25206B   26132.08725519 -.00000012  00000+0  00000+0 0  9993
2 65590  64.6568 316.2427 0011354 315.8273 222.0958  2.13100605  5146
